{
  "type": "FeatureCollection",
  "features": [
    {
      "type": "Feature",
      "properties": {
        "norad_id": 66548,
        "name": "CZ-2C R/B",
        "group": "last-30-days",
        "lat": -31.209323754761286,
        "lon": -131.50721889569576,
        "alt_km": 472.52377824924315,
        "timestamp": "2025-12-02T10:50:46.053198+00:00",
        "meta_object_name": "CZ-2C R/B",
        "meta_object_id": "2025-266D",
        "meta_epoch": "2025-12-02T02:03:07.009056",
        "meta_mean_motion": 15.29807959,
        "meta_eccentricity": 0.0084884,
        "meta_inclination": 52.0549,
        "meta_ra_of_asc_node": 22.0262,
        "meta_arg_of_pericenter": 136.7997,
        "meta_mean_anomaly": 223.9689,
        "meta_ephemeris_type": 0,
        "meta_classification_type": "U",
        "meta_norad_cat_id": 66548,
        "meta_element_set_no": 999,
        "meta_rev_at_epoch": 198,
        "meta_bstar": 0.0004401,
        "meta_mean_motion_dot": 0.00014009,
        "meta_mean_motion_ddot": 0,
        "tle_line1": "1 66548U 25266D   25336.08549779  .00014009  00000+0  44010-3 0  9993",
        "tle_line2": "2 66548  52.0549  22.0262 0084884 136.7997 223.9689 15.29807959  1986"
      },
      "geometry": {
        "type": "Point",
        "coordinates": [
          -131.50721889569576,
          -31.209323754761286
        ]
      }
    },
    {
      "type": "Feature",
      "properties": {
        "norad_id": 66549,
        "name": "SHIJIAN-28",
        "group": "last-30-days",
        "lat": -2.3988814654181603,
        "lon": -94.62885795694172,
        "alt_km": 34018.00802367954,
        "timestamp": "2025-12-02T10:50:46.053210+00:00",
        "meta_object_name": "SHIJIAN-28",
        "meta_object_id": "2025-277A",
        "meta_epoch": "2025-11-30T18:06:43.124256",
        "meta_mean_motion": 2.28019775,
        "meta_eccentricity": 0.7300519,
        "meta_inclination": 14.4344,
        "meta_ra_of_asc_node": 275.4056,
        "meta_arg_of_pericenter": 179.5026,
        "meta_mean_anomaly": 182.358,
        "meta_ephemeris_type": 0,
        "meta_classification_type": "U",
        "meta_norad_cat_id": 66549,
        "meta_element_set_no": 999,
        "meta_rev_at_epoch": 4,
        "meta_bstar": 0.00062085,
        "meta_mean_motion_dot": 6.315e-05,
        "meta_mean_motion_ddot": 0,
        "tle_line1": "1 66549U 25277A   25334.75466579  .00006315  00000+0  62085-3 0  9997",
        "tle_line2": "2 66549  14.4344 275.4056 7300519 179.5026 182.3580  2.28019775    48"
      },
      "geometry": {
        "type": "Point",
        "coordinates": [
          -94.62885795694172,
          -2.3988814654181603
        ]
      }
    },
    {
      "type": "Feature",
      "properties": {
        "norad_id": 66550,
        "name": "CZ-7A R/B",
        "group": "last-30-days",
        "lat": 2.214411609819819,
        "lon": -76.5774260232769,
        "alt_km": 32864.2349939731,
        "timestamp": "2025-12-02T10:50:46.053224+00:00",
        "meta_object_name": "CZ-7A R/B",
        "meta_object_id": "2025-277B",
        "meta_epoch": "2025-12-01T03:57:29.558880",
        "meta_mean_motion": 2.40161271,
        "meta_eccentricity": 0.7236288,
        "meta_inclination": 14.4278,
        "meta_ra_of_asc_node": 275.378,
        "meta_arg_of_pericenter": 178.5774,
        "meta_mean_anomaly": 186.2906,
        "meta_ephemeris_type": 0,
        "meta_classification_type": "U",
        "meta_norad_cat_id": 66550,
        "meta_element_set_no": 999,
        "meta_rev_at_epoch": 5,
        "meta_bstar": 4.4604e-05,
        "meta_mean_motion_dot": 0.00016399,
        "meta_mean_motion_ddot": -7.1945e-08,
        "tle_line1": "1 66550U 25277B   25335.16492545  .00016399 -71945-7  44604-4 0  9993",
        "tle_line2": "2 66550  14.4278 275.3780 7236288 178.5774 186.2906  2.40161271    58"
      },
      "geometry": {
        "type": "Point",
        "coordinates": [
          -76.5774260232769,
          2.214411609819819
        ]
      }
    },
    {
      "type": "Feature",
      "properties": {
        "norad_id": 66554,
        "name": "GLOBAL-33",
        "group": "last-30-days",
        "lat": 19.01207543346232,
        "lon": -86.13163439885439,
        "alt_km": 472.8625514801861,
        "timestamp": "2025-12-02T10:50:46.053235+00:00",
        "meta_object_name": "GLOBAL-33",
        "meta_object_id": "2025-267A",
        "meta_epoch": "2025-12-01T13:50:24.523008",
        "meta_mean_motion": 15.31219725,
        "meta_eccentricity": 0.00057288,
        "meta_inclination": 42.0185,
        "meta_ra_of_asc_node": 121.4212,
        "meta_arg_of_pericenter": 334.0325,
        "meta_mean_anomaly": 26.0224,
        "meta_ephemeris_type": 0,
        "meta_classification_type": "U",
        "meta_norad_cat_id": 66554,
        "meta_element_set_no": 999,
        "meta_rev_at_epoch": 169,
        "meta_bstar": 0.00042504888,
        "meta_mean_motion_dot": 0.00012871,
        "meta_mean_motion_ddot": 0,
        "tle_line1": "1 66554U 25267A   25335.57667272  .00012871  00000+0  42505-3 0  9995",
        "tle_line2": "2 66554  42.0185 121.4212 0005728 334.0325  26.0224 15.31219725  1691"
      },
      "geometry": {
        "type": "Point",
        "coordinates": [
          -86.13163439885439,
          19.01207543346232
        ]
      }
    },
    {
      "type": "Feature",
      "properties": {
        "norad_id": 66555,
        "name": "ELECTRON KICK STAGE R/B",
        "group": "last-30-days",
        "lat": 0.22572975956102637,
        "lon": -63.94962504900511,
        "alt_km": 474.0938640914792,
        "timestamp": "2025-12-02T10:50:46.053247+00:00",
        "meta_object_name": "ELECTRON KICK STAGE R/B",
        "meta_object_id": "2025-267B",
        "meta_epoch": "2025-12-01T10:35:48.221376",
        "meta_mean_motion": 15.32009577,
        "meta_eccentricity": 0.0007494,
        "meta_inclination": 42.0166,
        "meta_ra_of_asc_node": 122.1405,
        "meta_arg_of_pericenter": 332.9044,
        "meta_mean_anomaly": 27.1401,
        "meta_ephemeris_type": 0,
        "meta_classification_type": "U",
        "meta_norad_cat_id": 66555,
        "meta_element_set_no": 999,
        "meta_rev_at_epoch": 167,
        "meta_bstar": 0.00092660656,
        "meta_mean_motion_dot": 0.00029144,
        "meta_mean_motion_ddot": 0,
        "tle_line1": "1 66555U 25267B   25335.44153034  .00029144  00000+0  92661-3 0  9997",
        "tle_line2": "2 66555  42.0166 122.1405 0007494 332.9044  27.1401 15.32009577  1670"
      },
      "geometry": {
        "type": "Point",
        "coordinates": [
          -63.94962504900511,
          0.22572975956102637
        ]
      }
    },
    {
      "type": "Feature",
      "properties": {
        "norad_id": 66557,
        "name": "STARLINK-35699",
        "group": "last-30-days",
        "lat": -20.318519882844395,
        "lon": 25.64395714635274,
        "alt_km": 338.4685057606075,
        "timestamp": "2025-12-02T10:50:46.053260+00:00",
        "meta_object_name": "STARLINK-35699",
        "meta_object_id": "2025-268A",
        "meta_epoch": "2025-12-02T04:00:03.998880",
        "meta_mean_motion": 15.78645453,
        "meta_eccentricity": 0.0001793,
        "meta_inclination": 42.9968,
        "meta_ra_of_asc_node": 183.9664,
        "meta_arg_of_pericenter": 275.5304,
        "meta_mean_anomaly": 112.6627,
        "meta_ephemeris_type": 0,
        "meta_classification_type": "U",
        "meta_norad_cat_id": 66557,
        "meta_element_set_no": 999,
        "meta_rev_at_epoch": 297,
        "meta_bstar": -0.009546,
        "meta_mean_motion_dot": -0.01514515,
        "meta_mean_motion_ddot": 0,
        "tle_line1": "1 66557U 25268A   25336.16671295 -.01514515  00000+0 -95460-2 0  9997",
        "tle_line2": "2 66557  42.9968 183.9664 0001793 275.5304 112.6627 15.78645453  2973"
      },
      "geometry": {
        "type": "Point",
        "coordinates": [
          25.64395714635274,
          -20.318519882844395
        ]
      }
    },
    {
      "type": "Feature",
      "properties": {
        "norad_id": 66558,
        "name": "STARLINK-35695",
        "group": "last-30-days",
        "lat": -21.540642075326595,
        "lon": 27.288345890200038,
        "alt_km": 338.5542866784026,
        "timestamp": "2025-12-02T10:50:46.053270+00:00",
        "meta_object_name": "STARLINK-35695",
        "meta_object_id": "2025-268B",
        "meta_epoch": "2025-12-02T04:00:03.998880",
        "meta_mean_motion": 15.78635598,
        "meta_eccentricity": 0.0001824,
        "meta_inclination": 42.9967,
        "meta_ra_of_asc_node": 183.9616,
        "meta_arg_of_pericenter": 275.5643,
        "meta_mean_anomaly": 114.6078,
        "meta_ephemeris_type": 0,
        "meta_classification_type": "U",
        "meta_norad_cat_id": 66558,
        "meta_element_set_no": 999,
        "meta_rev_at_epoch": 297,
        "meta_bstar": -0.0095723,
        "meta_mean_motion_dot": -0.01517591,
        "meta_mean_motion_ddot": 0,
        "tle_line1": "1 66558U 25268B   25336.16671295 -.01517591  00000+0 -95723-2 0  9997",
        "tle_line2": "2 66558  42.9967 183.9616 0001824 275.5643 114.6078 15.78635598  2972"
      },
      "geometry": {
        "type": "Point",
        "coordinates": [
          27.288345890200038,
          -21.540642075326595
        ]
      }
    }
  ]
}